{
    "links": {
        "self": "http://www.neowsapp.com/rest/v1/neo/3674216?api_key=iIulBulltgU6a56xZRHN4H3l9WmuAYTsLGpBGhQ2"
    },
    "id": "3674216",
    "neo_reference_id": "3674216",
    "name": "(2014 MD42)",
    "designation": "2014 MD42",
    "nasa_jpl_url": "http://ssd.jpl.nasa.gov/sbdb.cgi?sstr=3674216",
    "absolute_magnitude_h": 24.5,
    "estimated_diameter": {
        "kilometers": {
            "estimated_diameter_min": 0.0334622374,
            "estimated_diameter_max": 0.0748238376
        },
        "meters": {
            "estimated_diameter_min": 33.4622374455,
            "estimated_diameter_max": 74.8238376074
        },
        "miles": {
            "estimated_diameter_min": 0.0207924639,
            "estimated_diameter_max": 0.0464933628
        },
        "feet": {
            "estimated_diameter_min": 109.7842471007,
            "estimated_diameter_max": 245.4850393757
        }
    },
    "is_potentially_hazardous_asteroid": false,
    "close_approach_data": [
        {
            "close_approach_date": "2006-05-15",
            "close_approach_date_full": "2006-May-15 18:30",
            "epoch_date_close_approach": 1147717800000,
            "relative_velocity": {
                "kilometers_per_second": "9.6969703713",
                "kilometers_per_hour": "34909.0933366732",
                "miles_per_hour": "21691.1530235567"
            },
            "miss_distance": {
                "astronomical": "0.1230645562",
                "lunar": "47.8721123618",
                "kilometers": "18410195.480015294",
                "miles": "11439565.0116032972"
            },
            "orbiting_body": "Earth"
        },
        {
            "close_approach_date": "2014-06-19",
            "close_approach_date_full": "2014-Jun-19 14:08",
            "epoch_date_close_approach": 1403186880000,
            "relative_velocity": {
                "kilometers_per_second": "6.0394652128",
                "kilometers_per_hour": "21742.0747659153",
                "miles_per_hour": "13509.67973441"
            },
            "miss_distance": {
                "astronomical": "0.0803752255",
                "lunar": "31.2659627195",
                "kilometers": "12023962.535569685",
                "miles": "7471343.868784253"
            },
            "orbiting_body": "Earth"
        },
        {
            "close_approach_date": "2022-07-30",
            "close_approach_date_full": "2022-Jul-30 19:39",
            "epoch_date_close_approach": 1659209940000,
            "relative_velocity": {
                "kilometers_per_second": "9.30718847",
                "kilometers_per_hour": "33505.8784920718",
                "miles_per_hour": "20819.2498885876"
            },
            "miss_distance": {
                "astronomical": "0.1298968679",
                "lunar": "50.5298816131",
                "kilometers": "19432294.757511373",
                "miles": "12074668.0525200274"
            },
            "orbiting_body": "Earth"
        }
    ],
    "orbital_data": {
        "orbit_id": "5",
        "orbit_determination_date": "2017-04-06 08:39:51",
        "first_observation_date": "2014-06-30",
        "last_observation_date": "2014-07-16",
        "data_arc_in_days": 16,
        "observations_used": 11,
        "orbit_uncertainty": "8",
        "minimum_orbit_intersection": ".0566854",
        "jupiter_tisserand_invariant": "6.836",
        "epoch_osculation": "2456839.5",
        "eccentricity": ".2768989315241367",
        "semi_major_axis": ".8585064546465018",
        "inclination": "6.961277695109685",
        "ascending_node_longitude": "264.3379865024939",
        "orbital_period": "290.5452461426287",
        "perihelion_distance": ".6207869346483107",
        "perihelion_argument": "187.3096529150599",
        "aphelion_distance": "1.096225974644693",
        "perihelion_time": "2456977.714152438056",
        "mean_anomaly": "188.7457959189103",
        "mean_motion": "1.239049699760966",
        "equinox": "J2000",
        "orbit_class": {
            "orbit_class_type": "ATE",
            "orbit_class_description": "Near-Earth asteroid orbits similar to that of 2062 Aten",
            "orbit_class_range": "a (semi-major axis) < 1.0 AU; q (perihelion) > 0.983 AU"
        }
    },
    "is_sentry_object": false
}